NORAD_CAT_ID,OBJECT_NAME,OBJECT_TYPE,EPOCH,MEAN_MOTION,ECCENTRICITY,INCLINATION,RA_OF_ASC_NODE,ARG_OF_PERICENTER,MEAN_ANOMALY,BSTAR,MEAN_MOTION_DOT,MEAN_MOTION_DDOT,TLE_LINE0,TLE_LINE1,TLE_LINE2,SEMIMAJOR_AXIS,PERIOD,APOGEE,PERIGEE,DECAYED
53022.0,STARLINK-4216,PAYLOAD,2023-01-26 08:14:50,15.08834458,0.000197,53.217,154.3581,79.7814,280.34,9.1774e-05,1.173e-05,0.0,0 STARLINK-4216,1 53022U 22076AN  23026.34363831  .00001173  00000-0  91774-4 0  9997,2 53022  53.2170 154.3581 0001970  79.7814 280.3400 15.08834458 31605,6917.897,95.438,541.125,538.4,0.0
53022.0,STARLINK-4216,PAYLOAD,2023-01-26 14:36:22,15.08843413,0.0002256999999999,53.2171,153.171,73.2159,286.9081,7.158e-05,8.51e-06,0.0,0 STARLINK-4216,1 53022U 22076AN  23026.60859467  .00000851  00000-0  71580-4 0  9996,2 53022  53.2171 153.1710 0002257  73.2159 286.9081 15.08843413 31177,6917.87,95.437,541.2959999999999,538.174,0.0
53022.0,STARLINK-4216,PAYLOAD,2023-01-26 16:11:45,15.088494699999998,0.0002197,53.2174,152.8713,80.21,279.914,8.232700000000001e-05,1.023e-05,0.0,0 STARLINK-4216,1 53022U 22076AN  23026.67482959  .00001023  00000-0  82327-4 0  9994,2 53022  53.2174 152.8713 0002197  80.2100 279.9140 15.08849470 31656,6917.851,95.437,541.236,538.197,0.0
53022.0,STARLINK-4216,PAYLOAD,2023-01-27 14:27:09,15.08844847,0.0001952,53.2181,148.707,89.9718,270.1498,1.2234e-05,-9.3e-07,0.0,0 STARLINK-4216,1 53022U 22076AN  23027.60219300 -.00000093  00000-0  12234-4 0  9993,2 53022  53.2181 148.7070 0001952  89.9718 270.1498 15.08844847 31790,6917.866,95.437,541.081,538.38,0.0
53022.0,STARLINK-4216,PAYLOAD,2023-01-27 16:02:32,15.08845605,0.0001905,53.2178,148.4091,91.4798,268.6412,1.7242000000000002e-05,-1.4e-07,0.0,0 STARLINK-4216,1 53022U 22076AN  23027.66843192 -.00000014  00000-0  17242-4 0  9998,2 53022  53.2178 148.4091 0001905  91.4798 268.6412 15.08845605 31331,6917.863,95.437,541.0459999999999,538.41,0.0
53022.0,STARLINK-4216,PAYLOAD,2023-01-28 12:42:33,15.08839741,0.0002157,53.2161,144.5452,91.1077,269.0162,9.6647e-07,-2.73e-06,0.0,0 STARLINK-4216,1 53022U 22076AN  23028.52955641 -.00000273  00000-0  96647-6 0  9992,2 53022  53.2161 144.5452 0002157  91.1077 269.0162 15.08839741 31935,6917.881,95.438,541.238,538.254,0.0
53022.0,STARLINK-4216,PAYLOAD,2023-01-28 15:53:19,15.08842541,0.0001983,53.2167,143.9492,97.9256,262.1961,-2.4826e-05,-6.83e-06,0.0,0 STARLINK-4216,1 53022U 22076AN  23028.66203472 -.00000683  00000-0 -24826-4 0  9999,2 53022  53.2167 143.9492 0001983  97.9256 262.1961 15.08842541 31480,6917.873,95.437,541.109,538.366,0.0
53022.0,STARLINK-4216,PAYLOAD,2023-01-29 17:19:30,15.088355,0.0001931,53.2174,139.1904,108.9172,251.203,-1.0694e-05,-4.58e-06,0.0,0 STARLINK-4216,1 53022U 22076AN  23029.72188006 -.00000458  00000-0 -10694-4 0  9990,2 53022  53.2174 139.1904 0001931 108.9172 251.2030 15.08835500 32110,6917.894,95.438,541.095,538.423,0.0
53022.0,STARLINK-4216,PAYLOAD,2023-01-30 10:48:45,15.08833992,0.0001764,53.2168,135.9215,103.2783,256.8406,2.0175e-05,3.3e-07,0.0,0 STARLINK-4216,1 53022U 22076AN  23030.45052341  .00000033  00000-0  20175-4 0  9996,2 53022  53.2168 135.9215 0001764 103.2783 256.8406 15.08833992 31752,6917.899,95.438,540.984,538.543,0.0
53022.0,STARLINK-4216,PAYLOAD,2023-01-30 15:34:54,15.08836217,0.0001817,53.2167,135.0297,99.3578,260.762,2.9148e-05,1.76e-06,0.0,0 STARLINK-4216,1 53022U 22076AN  23030.64924207  .00000176  00000-0  29148-4 0  9993,2 53022  53.2167 135.0297 0001817  99.3578 260.7620 15.08836217 31786,6917.892,95.438,541.014,538.5,0.0
53022.0,STARLINK-4216,PAYLOAD,2023-01-30 23:31:50,15.08839813,0.0001672,53.2171,133.5437,90.8707,269.2476,-8.9111e-06,-4.3e-06,0.0,0 STARLINK-4216,1 53022U 22076AN  23030.98044130 -.00000430  00000-0 -89111-5 0  9990,2 53022  53.2171 133.5437 0001672  90.8707 269.2476 15.08839813 32306,6917.881,95.438,540.903,538.589,0.0
53022.0,STARLINK-4216,PAYLOAD,2023-01-31 12:14:55,15.0883949,0.0001629,53.2179,131.165,99.13,260.9876,3.0112e-05,1.91e-06,0.0,0 STARLINK-4216,1 53022U 22076AN  23031.51036307  .00000191  00000-0  30112-4 0  9995,2 53022  53.2179 131.1650 0001629  99.1300 260.9876 15.08839490 31917,6917.882,95.438,540.874,538.62,0.0
53022.0,STARLINK-4216,PAYLOAD,2023-02-01 05:44:09,15.08837293,0.0001661,53.2176,127.8941,92.2715,267.8467,8.2692e-05,1.028e-05,0.0,0 STARLINK-4216,1 53022U 22076AN  23032.23900359  .00001028  00000-0  82692-4 0  9992,2 53022  53.2176 127.8941 0001661  92.2715 267.8467 15.08837293 32494,6917.889,95.438,540.903,538.605,0.0
53022.0,STARLINK-4216,PAYLOAD,2023-02-01 12:05:41,15.08880234,0.0001489,53.2177,126.705,97.0916,263.0245,-0.00043218,-7.167e-05,0.0,0 STARLINK-4216,1 53022U 22076AN  23032.50395245 -.00007167  00000-0 -43218-3 0  9996,2 53022  53.2177 126.7050 0001489  97.0916 263.0245 15.08880234 32538,6917.757,95.435,540.652,538.592,0.0
53022.0,STARLINK-4216,PAYLOAD,2023-02-01 23:13:24,15.08844279,0.0001639,53.2172,124.6237,83.9832,276.1347,-9.1556e-06,-4.34e-06,0.0,0 STARLINK-4216,1 53022U 22076AN  23032.96764171 -.00000434  00000-0 -91556-5 0  9994,2 53022  53.2172 124.6237 0001639  83.9832 276.1347 15.08844279 32600,6917.867,95.437,540.866,538.598,0.0
53022.0,STARLINK-4216,PAYLOAD,2023-02-02 11:56:29,15.08836827,0.0002034,53.2189,122.2473,97.0436,263.0787,6.7495e-05,7.86e-06,0.0,0 STARLINK-4216,1 53022U 22076AN  23033.49756437  .00000786  00000-0  67495-4 0  9991,2 53022  53.2189 122.2473 0002034  97.0436 263.0787 15.08836827 32210,6917.89,95.438,541.162,538.348,0.0
53022.0,STARLINK-4216,PAYLOAD,2023-02-02 23:04:11,15.08836969,0.0001646,53.2169,120.1635,78.9595,281.1582,-1.4044e-05,-5.12e-06,0.0,0 STARLINK-4216,1 53022U 22076AN  23033.96124620 -.00000512  00000-0 -14044-4 0  9997,2 53022  53.2169 120.1635 0001646  78.9595 281.1582 15.08836969 32757,6917.89,95.438,540.893,538.616,0.0
53022.0,STARLINK-4216,PAYLOAD,2023-02-03 13:22:39,15.08837028,0.0001649,53.2172,117.4885,75.1294,284.9881,-6.1794e-06,-3.86e-06,0.0,0 STARLINK-4216,1 53022U 22076AN  23034.55740659 -.00000386  00000-0 -61794-5 0  9993,2 53022  53.2172 117.4885 0001649  75.1294 284.9881 15.08837028 32373,6917.889,95.438,540.895,538.614,0.0
53022.0,STARLINK-4216,PAYLOAD,2023-02-04 08:27:17,15.08839403,0.0001544,53.2162,113.9195,77.1863,282.9301,3.7884e-05,3.15e-06,0.0,0 STARLINK-4216,1 53022U 22076AN  23035.35228370  .00000315  00000-0  37884-4 0  9995,2 53022  53.2162 113.9195 0001544  77.1863 282.9301 15.08839403 32964,6917.882,95.438,540.815,538.679,0.0
53022.0,STARLINK-4216,PAYLOAD,2023-02-04 13:13:26,15.08847734,0.0001294,53.2168,113.0256,84.5285,275.5855,2.5465e-05,1.17e-06,0.0,0 STARLINK-4216,1 53022U 22076AN  23035.55099823  .00000117  00000-0  25465-4 0  9998,2 53022  53.2168 113.0256 0001294  84.5285 275.5855 15.08847734 32521,6917.857,95.437,540.617,538.827,0.0
53022.0,STARLINK-4216,PAYLOAD,2023-02-05 05:07:18,15.08832439,0.0001285,53.2167,110.0511,95.561,264.5529,2.4947e-05,1.09e-06,0.0,0 STARLINK-4216,1 53022U 22076AN  23036.21340815  .00000109  00000-0  24947-4 0  9997,2 53022  53.2167 110.0511 0001285  95.5610 264.5529 15.08832439 33090,6917.904,95.438,540.657,538.88,0.0
53022.0,STARLINK-4216,PAYLOAD,2023-02-05 09:53:27,15.08832604,0.0001321,53.2163,109.1596,92.0244,268.09,2.3447e-05,8.5e-07,0.0,0 STARLINK-4216,1 53022U 22076AN  23036.41212907  .00000085  00000-0  23447-4 0  9996,2 53022  53.2163 109.1596 0001321  92.0244 268.0900 15.08832604 32651,6917.903,95.438,540.682,538.854,0.0
53022.0,STARLINK-4216,PAYLOAD,2023-02-06 11:19:37,15.08848969,0.0001241,53.2173,104.4006,104.7676,255.3454,6.1349e-05,6.89e-06,0.0,0 STARLINK-4216,1 53022U 22076AN  23037.47195949  .00000689  00000-0  61349-4 0  9992,2 53022  53.2173 104.4006 0001241 104.7676 255.3454 15.08848969 33281,6917.853,95.437,540.576,538.859,0.0
53022.0,STARLINK-4216,PAYLOAD,2023-02-06 20:51:55,15.08852118,0.0001055,53.2171,102.6187,89.1863,270.925,3.7368e-05,3.07e-06,0.0,0 STARLINK-4216,1 53022U 22076AN  23037.86939701  .00000307  00000-0  37368-4 0  9998,2 53022  53.2171 102.6187 0001055  89.1863 270.9250 15.08852118 32878,6917.843,95.437,540.438,538.979,0.0
53022.0,STARLINK-4216,PAYLOAD,2023-02-07 04:48:52,15.08839693,0.0001334,53.2196,101.1347,100.498,259.6162,0.00011283,1.508e-05,0.0,0 STARLINK-4216,1 53022U 22076AN  23038.20060416  .00001508  00000-0  11283-3 0  9996,2 53022  53.2196 101.1347 0001334 100.4980 259.6162 15.08839693 33391,6917.881,95.438,540.669,538.823,0.0
53022.0,STARLINK-4216,PAYLOAD,2023-02-07 12:45:47,15.08850004,0.0001172,53.2177,99.6456,89.3657,270.747,0.00018569,2.669e-05,0.0,0 STARLINK-4216,1 53022U 22076AN  23038.53179536  .00002669  00000-0  18569-3 0  9999,2 53022  53.2177  99.6456 0001172  89.3657 270.7470 15.08850004 33449,6917.85,95.437,540.526,538.904,0.0
53022.0,STARLINK-4216,PAYLOAD,2023-02-07 20:42:43,15.08837688,9.9e-05,53.2179,98.1584,100.8422,259.2681,5.8613e-05,6.45e-06,0.0,0 STARLINK-4216,1 53022U 22076AN  23038.86300548  .00000645  00000-0  58613-4 0  9991,2 53022  53.2179  98.1584 0000990 100.8422 259.2681 15.08837688 33497,6917.887,95.438,540.437,539.068,0.0
53022.0,STARLINK-4216,PAYLOAD,2023-02-08 12:36:34,15.08853476,0.0001168,53.2172,95.183,90.7203,269.3923,8.0986e-05,1.002e-05,0.0,0 STARLINK-4216,1 53022U 22076AN  23039.52539589  .00001002  00000-0  80986-4 0  9990,2 53022  53.2172  95.1830 0001168  90.7203 269.3923 15.08853476 33598,6917.839,95.437,540.512,538.896,0.0
53022.0,STARLINK-4216,PAYLOAD,2023-02-08 20:33:30,15.08847578,0.0001482,53.2176,93.6968,84.5722,275.5439,-2.1172e-05,-6.25e-06,0.0,0 STARLINK-4216,1 53022U 22076AN  23039.85660244 -.00000625  00000-0 -21172-4 0  9993,2 53022  53.2176  93.6968 0001482  84.5722 275.5439 15.08847578 33174,6917.857,95.437,540.747,538.697,0.0
53022.0,STARLINK-4216,PAYLOAD,2023-02-09 04:30:26,15.08837768,0.0002015,53.2178,92.2125,85.2559,274.8663,2.4792e-05,1.06e-06,0.0,0 STARLINK-4216,1 53022U 22076AN  23040.18781066  .00000106  00000-0  24792-4 0  9990,2 53022  53.2178  92.2125 0002015  85.2559 274.8663 15.08837768 33693,6917.887,95.438,541.146,538.358,0.0
